{
    "links": {
        "self": "http://www.neowsapp.com/rest/v1/neo/3746626?api_key=iIulBulltgU6a56xZRHN4H3l9WmuAYTsLGpBGhQ2"
    },
    "id": "3746626",
    "neo_reference_id": "3746626",
    "name": "(2016 EK156)",
    "designation": "2016 EK156",
    "nasa_jpl_url": "http://ssd.jpl.nasa.gov/sbdb.cgi?sstr=3746626",
    "absolute_magnitude_h": 24.7,
    "estimated_diameter": {
        "kilometers": {
            "estimated_diameter_min": 0.0305179233,
            "estimated_diameter_max": 0.0682401509
        },
        "meters": {
            "estimated_diameter_min": 30.5179232594,
            "estimated_diameter_max": 68.2401509401
        },
        "miles": {
            "estimated_diameter_min": 0.0189629525,
            "estimated_diameter_max": 0.0424024508
        },
        "feet": {
            "estimated_diameter_min": 100.1244233463,
            "estimated_diameter_max": 223.8850168104
        }
    },
    "is_potentially_hazardous_asteroid": false,
    "close_approach_data": [
        {
            "close_approach_date": "2009-03-15",
            "close_approach_date_full": "2009-Mar-15 01:36",
            "epoch_date_close_approach": 1237080960000,
            "relative_velocity": {
                "kilometers_per_second": "16.5215082815",
                "kilometers_per_hour": "59477.4298133208",
                "miles_per_hour": "36956.9618748381"
            },
            "miss_distance": {
                "astronomical": "0.3093449875",
                "lunar": "120.3352001375",
                "kilometers": "46277351.225176625",
                "miles": "28755412.645122425"
            },
            "orbiting_body": "Earth"
        },
        {
            "close_approach_date": "2016-03-29",
            "close_approach_date_full": "2016-Mar-29 09:09",
            "epoch_date_close_approach": 1459242540000,
            "relative_velocity": {
                "kilometers_per_second": "9.457173962",
                "kilometers_per_hour": "34045.826263165",
                "miles_per_hour": "21154.7524355761"
            },
            "miss_distance": {
                "astronomical": "0.0360400527",
                "lunar": "14.0195805003",
                "kilometers": "5391515.118607749",
                "miles": "3350132.1470109762"
            },
            "orbiting_body": "Earth"
        },
        {
            "close_approach_date": "2016-09-06",
            "close_approach_date_full": "2016-Sep-06 13:53",
            "epoch_date_close_approach": 1473169980000,
            "relative_velocity": {
                "kilometers_per_second": "7.6080331882",
                "kilometers_per_hour": "27388.9194773537",
                "miles_per_hour": "17018.4094385812"
            },
            "miss_distance": {
                "astronomical": "0.3180619655",
                "lunar": "123.7261045795",
                "kilometers": "47581392.566813485",
                "miles": "29565706.360996693"
            },
            "orbiting_body": "Earth"
        }
    ],
    "orbital_data": {
        "orbit_id": "9",
        "orbit_determination_date": "2017-04-06 08:27:30",
        "first_observation_date": "2016-03-12",
        "last_observation_date": "2016-03-21",
        "data_arc_in_days": 9,
        "observations_used": 39,
        "orbit_uncertainty": "8",
        "minimum_orbit_intersection": ".0293552",
        "jupiter_tisserand_invariant": "5.070",
        "epoch_osculation": "2457462.5",
        "eccentricity": ".2484575449143037",
        "semi_major_axis": "1.256874350721864",
        "inclination": "12.4361533524748",
        "ascending_node_longitude": "5.21846053050984",
        "orbital_period": "514.6787319169401",
        "perihelion_distance": ".9445944352757499",
        "perihelion_argument": "236.4634701387425",
        "aphelion_distance": "1.569154266167977",
        "perihelion_time": "2457522.193937984018",
        "mean_anomaly": "318.2461517416761",
        "mean_motion": ".6994654678252714",
        "equinox": "J2000",
        "orbit_class": {
            "orbit_class_type": "APO",
            "orbit_class_description": "Near-Earth asteroid orbits which cross the Earth’s orbit similar to that of 1862 Apollo",
            "orbit_class_range": "a (semi-major axis) > 1.0 AU; q (perihelion) < 1.017 AU"
        }
    },
    "is_sentry_object": false
}